{"type":"FeatureCollection","features":[{"type":"Feature","properties":{"name":"Goranboy"},"geometry":{"type":"Polygon","coordinates":[[[46.358571,40.2788218],[46.3614249,40.2778887],[46.3644612,40.2750028],[46.3676261,40.2727482],[46.3701135,40.2714447],[46.37208,40.2708044],[46.3815307,40.2728136],[46.3836336,40.2746309],[46.3921609,40.2725903],[46.4023876,40.2710455],[46.4134672,40.2678107],[46.4321574,40.2651119],[46.4383364,40.2631447],[46.4451634,40.2615163],[46.4456999,40.2613279],[46.4474594,40.2611314],[46.4488649,40.2611888],[46.4516115,40.2619747],[46.4562463,40.2648893],[46.4575553,40.2661992],[46.4591177,40.2668686],[46.4621043,40.2669523],[46.4661598,40.2704888],[46.4661813,40.272126],[46.4667821,40.2730265],[46.4682841,40.2742871],[46.4732623,40.2744344],[46.4759016,40.2769064],[46.482532,40.2789364],[46.4840984,40.2790182],[46.4848709,40.2792474],[46.4863729,40.2794929],[46.487832,40.2803442],[46.4891104,40.2807576],[46.489023,40.2875141],[46.4922689,40.2907734],[46.4952564,40.2920313],[46.4986445,40.2925513],[46.5046548,40.2944535],[46.5114113,40.2969412],[46.5088047,40.3033717],[46.5092284,40.3114062],[46.5119749,40.3188408],[46.5180174,40.3332365],[46.5260512,40.3350685],[46.5360075,40.3363246],[46.5500838,40.3388893],[46.5523497,40.3391509],[46.5581175,40.3387322],[46.5692412,40.3384182],[46.5754897,40.3372144],[46.5803648,40.3377901],[46.5875059,40.3378948],[46.5921065,40.3413491],[46.6004836,40.3448555],[46.6048094,40.3495654],[46.6090666,40.3553738],[46.6127058,40.3589318],[46.6189543,40.3631698],[46.6219755,40.3665704],[46.6346785,40.3670936],[46.6728276,40.3742906],[46.6804892,40.3705339],[46.6859104,40.3743555],[46.6850715,40.3795274],[46.69322,40.3854648],[46.7099341,40.3842475],[46.7227484,40.4018613],[46.7591685,40.4143374],[46.7667194,40.4190199],[46.7725754,40.4202921],[46.7821669,40.4182175],[46.7878045,40.4186244],[46.7990434,40.4197531],[46.8076394,40.4196105],[46.8099335,40.4230124],[46.8152152,40.4257372],[46.8221939,40.4381328],[46.8189844,40.4491902],[46.8137058,40.4554602],[46.8122038,40.4607501],[46.8165382,40.4606195],[46.8250417,40.45757],[46.8395409,40.4591828],[46.8720785,40.4881473],[46.8723067,40.4827051],[46.8758687,40.4795714],[46.8776282,40.4695819],[46.8803002,40.4649512],[46.8891939,40.4637377],[46.8955132,40.4689943],[46.8971693,40.4704125],[46.8974,40.4706532],[46.8974215,40.4710776],[46.8976414,40.4713755],[46.8980706,40.471649],[46.8986553,40.4722815],[46.899358,40.472408],[46.8996048,40.4725712],[46.9003198,40.4733404],[46.9005436,40.473873],[46.9005811,40.474175],[46.9006616,40.4748891],[46.9007688,40.4752237],[46.9021422,40.4767702],[46.9021985,40.4769539],[46.902228,40.4774578],[46.9025821,40.4781535],[46.9049799,40.4805814],[46.9068374,40.4830642],[46.9089925,40.4841638],[46.9246098,40.4943653],[46.953196,40.502465],[46.9661197,40.5022219],[46.9815031,40.5052385],[46.9850883,40.5185359],[46.9913539,40.525093],[46.9950446,40.5376182],[46.9930705,40.5429016],[46.9767914,40.5434152],[46.968008,40.5390533],[46.9396838,40.5400317],[46.9215736,40.5352047],[46.9147929,40.5369007],[46.9075832,40.532204],[46.9022037,40.5338824],[46.8956152,40.5471877],[46.8983993,40.5514455],[46.908515,40.5534884],[46.9105223,40.5737456],[46.9012317,40.5783091],[46.8959449,40.5907539],[46.8966827,40.6022295],[46.8917594,40.6184662],[46.8986915,40.6247801],[46.9103297,40.6258157],[46.9374911,40.6207361],[46.9447202,40.6310934],[46.9369563,40.6424559],[46.8687451,40.6493987],[46.8851047,40.672536],[46.8717952,40.6828401],[46.8202208,40.665806],[46.8168934,40.6470845],[46.7966154,40.6389405],[46.7764103,40.6702227],[46.7913835,40.6866249],[46.8288165,40.6887274],[46.8241027,40.6958756],[46.8299257,40.7242506],[46.8515536,40.7307646],[46.8469915,40.734953],[46.8113478,40.7318152],[46.7276088,40.761645],[46.7226191,40.7707576],[46.7641855,40.7850109],[46.757127,40.8105404],[46.7709829,40.8587103],[46.7705908,40.8874724],[46.7948081,40.9183631],[46.7293697,40.9447581],[46.6409204,40.8848827],[46.5518617,40.82454],[46.543464,40.8079771],[46.5510983,40.8016205],[46.5625498,40.8029689],[46.5648402,40.7987309],[46.5500804,40.7887127],[46.5549155,40.7829323],[46.5281953,40.7588419],[46.5167457,40.7522573],[46.5005843,40.747661],[46.4894042,40.7437797],[46.483916,40.7368638],[46.4881548,40.7290593],[46.4956619,40.7237558],[46.5021511,40.7130512],[46.5062001,40.7107639],[46.5052631,40.7053806],[46.5057288,40.6962349],[46.5088704,40.6896719],[46.5089005,40.6840352],[46.5089515,40.6782081],[46.5143258,40.6613996],[46.5197451,40.6563438],[46.5218098,40.6514107],[46.5183783,40.6343905],[46.5109588,40.6234705],[46.5118646,40.6060194],[46.5187906,40.6049151],[46.5158987,40.5912909],[46.5008944,40.5547898],[46.4759552,40.5253316],[46.4706675,40.5231955],[46.4687732,40.4995981],[46.4417158,40.5051143],[46.4366181,40.4910993],[46.4426962,40.4806607],[46.4354753,40.4619032],[46.434393,40.4502287],[46.4279724,40.4339631],[46.4133365,40.4206808],[46.402396,40.41499],[46.3960437,40.4015335],[46.3935632,40.3869681],[46.3854827,40.368373],[46.3675869,40.3559831],[46.3703726,40.3300576],[46.383419,40.3245611],[46.3997175,40.322021],[46.3970206,40.3146945],[46.384692,40.3095146],[46.369406,40.3086293],[46.358571,40.2788218]],[[46.7726309,40.4723162],[46.7737522,40.4910538],[46.7782337,40.5042007],[46.7897059,40.518233],[46.8064753,40.524625],[46.8213448,40.526251],[46.8479319,40.5218223],[46.8532561,40.5121026],[46.8443722,40.4982578],[46.8393988,40.4916157],[46.8312726,40.4861673],[46.7726309,40.4723162]]]}},{"type":"Feature","properties":{"name":"Ming\u0259\u00e7evir"},"geometry":{"type":"Polygon","coordinates":[[[46.868259,40.8193275],[46.9574852,40.7590228],[46.9537516,40.7535289],[46.9525929,40.7504079],[46.9552107,40.74914],[46.9612296,40.7578037],[46.9715838,40.7580915],[46.9805639,40.7522562],[46.983643,40.7568968],[46.9929977,40.7530616],[46.9928904,40.7460351],[47.0104213,40.7460026],[47.0105929,40.7445395],[47.0257215,40.7438437],[47.0728482,40.7460149],[47.081879,40.7475785],[47.083109,40.752228],[47.0878826,40.7518398],[47.0906559,40.7552686],[47.09386,40.7535801],[47.0986561,40.7510947],[47.1066215,40.7470396],[47.1146146,40.7596624],[47.1011755,40.8130321],[46.9081876,40.8751214],[46.868259,40.8193275]]]}}]}